{"fetched_at":"2026-03-30T06:02:59Z","count":15439,"tles":[{"name":"STARLINK-5186","line1":"1 54177U 22141W   26087.93305660  .00001807  00000+0  13163-3 0  9991","line2":"2 54177  53.2167 277.6646 0001433  93.3943 266.7213 15.08834984188767","category":"Starlink"}]}