{
  "norad_id": 54177,
  "name": "STARLINK-5186",
  "history": [
    {
      "epoch": "2026-03-28T22:23:36.090240Z",
      "apogee_km": 540.7500553687032,
      "perigee_km": 538.7673864550898,
      "latitude_deg": -4.596257910959084e-06,
      "longitude_deg": 115.41782209269834,
      "height_km": 540.7129464444612,
      "semi_major_axis_km": 6917.895720911896,
      "eccentricity": 0.0001433,
      "inclination_deg": 53.2167,
      "raan_deg": 277.6646,
      "arg_perigee_deg": 93.3943,
      "mean_anomaly_deg": 266.7213,
      "mean_motion_rev_day": 15.08834984
    }
  ]
}